[{"OBJECT_NAME":"CHECKMATE 6","OBJECT_ID":"2023-050D","EPOCH":"2026-03-09T16:53:29.113152","MEAN_MOTION":13.85137689,"ECCENTRICITY":0.00066075,"INCLINATION":81.0077,"RA_OF_ASC_NODE":167.3603,"ARG_OF_PERICENTER":211.3353,"MEAN_ANOMALY":148.741,"EPHEMERIS_TYPE":0,"CLASSIFICATION_TYPE":"U","NORAD_CAT_ID":56165,"ELEMENT_SET_NO":999,"REV_AT_EPOCH":14832,"BSTAR":0.00014178422,"MEAN_MOTION_DOT":1.72e-6,"MEAN_MOTION_DDOT":0},{"OBJECT_NAME":"DELTA 1 DEB","OBJECT_ID":"1977-065F","EPOCH":"2026-03-07T02:52:17.224320","MEAN_MOTION":14.18507323,"ECCENTRICITY":0.04728611,"INCLINATION":28.2353,"RA_OF_ASC_NODE":348.8743,"ARG_OF_PERICENTER":258.4635,"MEAN_ANOMALY":96.2486,"EPHEMERIS_TYPE":0,"CLASSIFICATION_TYPE":"U","NORAD_CAT_ID":10177,"ELEMENT_SET_NO":999,"REV_AT_EPOCH":28253,"BSTAR":0.00045332174,"MEAN_MOTION_DOT":3.156e-5,"MEAN_MOTION_DDOT":0}]
